#aV2008  3 18  0  0   .00000000      96 DD+AD WGS84 FIT  NGA
## 1471 172800.00000000   900.00000000 54543  .0000000000000
+   30     2  3  4  5  6  8  9 10 11 12 13 14 15 16 17 18 19
+         20 21 22 23 24 25 26 27 28 29 30 31 32  0  0  0  0
+          0  0  0  0  0  0  0  0  0  0  0  0  0  0  0  0  0
+          0  0  0  0  0  0  0  0  0  0  0  0  0  0  0  0  0
+          0  0  0  0  0  0  0  0  0  0  0  0  0  0  0  0  0
++         0  0  0  0  0  0  0  0  0  0  0  0  0  0  0  0  0
++         0  0  0  0  0  0  0  0  0  0  0  0  0  0  0  0  0
++         0  0  0  0  0  0  0  0  0  0  0  0  0  0  0  0  0
++         0  0  0  0  0  0  0  0  0  0  0  0  0  0  0  0  0
++         0  0  0  0  0  0  0  0  0  0  0  0  0  0  0  0  0
%c cc cc ccc ccc cccc cccc cccc cccc ccccc ccccc ccccc ccccc
%c cc cc ccc ccc cccc cccc cccc cccc ccccc ccccc ccccc ccccc
%f  0.0000000  0.000000000  0.00000000000  0.000000000000000
%f  0.0000000  0.000000000  0.00000000000  0.000000000000000
%i    0    0    0    0      0      0      0      0         0
%i    0    0    0    0      0      0      0      0         0
/*      NGA, ST. LOUIS,MO.                                  
/*   EPHEMERIS COMPUTED FROM  3 DAYS OF DATA                
/* CCCCCCCCCCCCCCCCCCCCCCCCCCCCCCCCCCCCCCCCCCCCCCCCCCCCCCCCC
/* CCCCCCCCCCCCCCCCCCCCCCCCCCCCCCCCCCCCCCCCCCCCCCCCCCCCCCCCC
*  2008  3 18 21  0   .00000000                                                 
P  2  14446.943262   6482.308604 -21522.713522    183.210423                    
V  2  -6771.077446  26091.621994   3004.075641       .031206                    
P  3 -23008.892586  -8329.244114  10494.592166    202.110291                    
V  3  -8655.162446 -11017.021318 -26724.382242       .051441                    
P  4   8611.613282  17618.718763 -17841.676939    -28.751363                    
V  4  -7961.979450  21312.700135  17657.625306      -.072651                    
P  5  17257.341557 -16053.933359 -12364.165745    725.549491                    
V  5  15403.304735  -2732.740643  25737.910954       .114451                    
P  6 -13358.732042 -21083.522213  -8892.188832     68.752710                    
V  6  10835.770508   5296.921601 -28322.327414       .147725                    
P  8    973.520451  23392.542233  11992.503963   -145.414492                    
V  8  -6742.181140  14124.921709 -27263.425391      -.014725                    
P  9  13745.675002 -17172.264158  14143.436209    115.752844                    
V  9  -1983.179258  19108.906817  24248.172054       .018086                    
P 10  25364.526927   -141.496435  -8564.092052   -317.717115                    
V 10  -9755.646026   4671.653722 -29105.943071      -.480539                    
P 11 -11765.002358  19774.362825  12843.901862     26.799634                    
V 11  -2971.181747 -17124.578325  23695.184711      -.001336                    
P 12  21889.785253 -12171.153428  -8616.030516   -358.227870                    
V 12  11388.835062   -401.183242  29263.651025      -.004462                    
P 13    539.866418  18698.720722 -18978.706503    246.066192                    
V 13 -16768.130491 -16872.356563 -17171.508864       .019669                    
P 14 -14367.514078 -21396.737709   6715.278769   -286.546375                    
V 14   7016.826175   4840.554143  30808.405496       .038534                    
P 15  18883.073882    -36.552581  18703.765208    -86.806177                    
V 15  16016.708963  17540.565035 -16153.159446      -.041470                    
P 16 -23352.909421  -2918.639894 -12417.447130    131.162404                    
V 16  14802.942725  -5938.497341 -26095.446846      -.010241                    
P 17  14358.322137  21368.552049   6891.277978     40.920845                    
V 17  -7923.436167  -4362.205065  30013.942749      -.004750                    
P 18   5952.446771 -16276.229855  20204.519898   -195.260329                    
V 18  25042.237636  -4531.101904 -11471.169278       .033143                    
P 19 -18539.464010   -654.466743  19156.430337     24.610149                    
V 19 -14982.109478 -18915.644652 -15043.342545       .011915                    
P 20 -20069.728464  13805.976584 -10642.769305    118.348217                    
V 20 -13636.593041   1040.262573  27412.907916      -.008155                    
P 21   4193.760490 -25578.795566   4214.997062     69.240493                    
V 21   5323.789146  -3935.444148 -30975.415639      -.009330                    
P 22  -9470.830022 -13403.284668  21042.184202    209.783487                    
V 22  25597.783208  -6560.286698   7353.359117       .003603                    
P 23 -11855.903375   9335.518418 -21935.658631    341.818529                    
V 23 -19559.603758 -19532.765625   2038.717833       .025762                    
P 24  12960.455197 -21837.012643  -8095.808116     79.194761                    
V 24   -634.146355  10755.022796 -29126.225076       .030511                    
P 25  -8369.305086  24416.651802  -6269.937576     -2.679636                    
V 25  -1162.400657  -8696.178122 -30359.126466      -.358818                    
P 26  19744.707919   5191.069527  16819.095979    210.740424                    
V 26  14246.965201  16778.482301 -20774.973915       .092164                    
P 27  -3305.401126  26188.904921   2666.254465    175.244797                    
V 27  -3116.575577   2015.729759 -31788.010510       .027129                    
P 28   7100.958902  13923.238073  21883.977606    -16.655897                    
V 28 -26032.297327   6579.534362   4001.344910      -.006166                    
P 29   2984.043509 -17042.099605 -20042.770145    -48.575583                    
V 29  18715.146867  17652.811554 -12126.446347       .027368                    
P 30  11652.620366 -16724.509660 -17307.164252     68.237008                    
V 30  20992.973269  -4635.902871  19081.885697       .015838                    
P 31  -9299.449067 -15986.045400 -18814.708890    -13.237906                    
V 31   7450.700985 -23228.420072  15976.880551      -.013932                    
P 32 -21997.405140  -5719.271371  14052.603890    252.428959                    
V 32  16514.041101  -5025.782944  24728.952260       .077094                    
EOF
